CALSPHERE 1             
1 00900U 64063C   22194.52290382  .00000476  00000+0  49770-3 0  9993
2 00900  90.1736  41.3894 0025520 307.3075  62.4039 13.73838901874247
CALSPHERE 2             
1 00902U 64063E   22194.55887812  .00000045  00000+0  54768-4 0  9994
2 00902  90.1866  44.4889 0020352  73.7887 318.7635 13.52718396662307
LCS 1                   
1 01361U 65034C   22194.57387953  .00000011  00000+0  29081-3 0  9998
2 01361  32.1455 343.2791 0013278 329.0526  30.9189  9.89301464 67816
TEMPSAT 1               
1 01512U 65065E   22194.82513088  .00000050  00000+0  83728-4 0  9990
2 01512  89.9117 218.4409 0068597 317.7472 216.3040 13.33452012768887
CALSPHERE 4A            
1 01520U 65065H   22194.58936444  .00000083  00000+0  14208-3 0  9999
2 01520  89.9939 130.1495 0068473 188.0292 347.3879 13.35893776771141
OPS 5712 (P/L 160)      
1 02826U 67053A   22194.80523913  .00001824  00000+0  47917-3 0  9993
2 02826  69.9262 227.2770 0008119 303.0168  57.0185 14.50714708857059
OPS 5712 (P/L 153)      
1 02874U 67053H   22194.57077176 -.00000014  00000+0  28359-4 0  9996
2 02874  69.9748 309.2012 0009963 262.0276  97.9699 13.96409500806476
SURCAL 150B             
1 02909U 67053J   22194.48823645  .00003525  00000+0  68098-3 0  9997
2 02909  69.9454 216.1825 0005532 315.7770  44.2929 14.64233916867425
RIGIDSPHERE 2 (LCS 4)   
1 05398U 71067E   22194.85350840  .00000428  00000+0  14355-3 0  9991
2 05398  87.6228  15.7025 0061106 299.3681  60.1422 14.34262615668270
COSMOS 2493 (SKRL-756 1)
1 39490U 13078A   22194.78467465  .00001378  00000+0  14185-3 0  9999
2 39490  82.4171 208.9508 0017402  15.3915 344.7828 14.89484665463947
COSMOS 2494 (SKRL-756 2)
1 39491U 13078B   22194.80115452  .00001555  00000+0  15453-3 0  9995
2 39491  82.4171 202.6586 0021192 350.0853   9.9944 14.90938244464260
